OBJECT_NAME,OBJECT_ID,EPOCH,MEAN_MOTION,ECCENTRICITY,INCLINATION,RA_OF_ASC_NODE,ARG_OF_PERICENTER,MEAN_ANOMALY,EPHEMERIS_TYPE,CLASSIFICATION_TYPE,NORAD_CAT_ID,ELEMENT_SET_NO,REV_AT_EPOCH,BSTAR,MEAN_MOTION_DOT,MEAN_MOTION_DDOT
STARLINK-11128 [DTC],2024-133B,2025-10-30T18:02:15.121824,15.69669395,.00005959,53.1605,66.9376,124.4410,235.6664,0,U,60302,999,7332,.85385933E-4,.9751E-4,0
STARLINK-11227 [DTC],2024-133C,2025-10-30T17:55:10.740576,15.69590402,.00030359,53.1575,66.9032,80.1935,279.9426,0,U,60303,999,7340,.32030916E-4,.3273E-4,0
STARLINK-11224 [DTC],2024-133D,2025-10-30T14:44:43.273536,15.69697346,.00017817,53.1580,67.4983,98.8280,261.2940,0,U,60304,999,7338,.12029928E-3,.14002E-3,0
STARLINK-11115 [DTC],2024-133E,2025-10-29T15:42:25.043328,15.69720640,.00013208,53.1582,72.1729,92.1017,268.0152,0,U,60305,999,7315,.15798919E-4,.1326E-4,0
STARLINK-11109 [DTC],2024-133F,2025-10-29T20:10:25.157280,15.69690505,.00008589,53.1561,71.1986,88.9356,271.1760,0,U,60306,999,7318,-.54268112E-4,-.7151E-4,0
STARLINK-11223 [DTC],2024-133G,2025-10-30T17:19:52.076064,15.69686671,.00016765,53.1566,66.7387,57.6321,302.4859,0,U,60307,999,7332,-.49884322E-4,-.6622E-4,0
STARLINK-11192 [DTC],2024-133H,2025-10-30T17:26:55.440384,15.69711474,.00012117,53.1569,66.7720,80.1086,280.0068,0,U,60308,999,7332,.9102728E-5,.514E-5,0
STARLINK-11213 [DTC],2024-133J,2025-10-30T12:37:44.554368,15.69707527,.00005844,53.1610,67.6486,58.6213,301.4862,0,U,60309,999,7329,.117464E-5,-.445E-5,0
STARLINK-11200 [DTC],2024-133K,2025-10-30T18:37:25.021056,15.69692803,.00014101,53.1577,66.3588,75.7813,284.3361,0,U,60310,999,7333,.68837152E-4,.7752E-4,0
STARLINK-11206 [DTC],2024-133M,2025-10-30T15:20:03.815520,15.69727087,.00012652,53.1572,67.6538,75.4004,284.7154,0,U,60312,999,7330,.81127785E-4,.9257E-4,0
STARLINK-11205 [DTC],2024-133N,2025-10-30T01:27:50.715360,15.69709054,.00002904,53.1579,70.4465,148.8516,211.2519,0,U,60313,999,7321,.39505891E-4,.4201E-4,0
STARLINK-32191,2024-133P,2025-10-30T22:00:56.187072,15.30184515,.00012934,53.1603,179.6922,92.1474,267.9675,0,U,60314,999,7177,-.30318521E-4,-.1257E-4,0
STARLINK-32194,2024-133Q,2025-10-30T22:22:11.786304,15.30195450,.00013392,53.1602,179.7868,81.5706,278.5447,0,U,60315,999,7177,.46650213E-4,.1022E-4,0
STARLINK-32192,2024-133R,2025-10-30T23:03:04.943232,15.30183093,.00012283,53.1601,179.2573,94.0165,266.0976,0,U,60316,999,7187,-.69249142E-4,-.2408E-4,0
STARLINK-32189,2024-133S,2025-10-30T22:19:10.489728,15.30190040,.00012895,53.1594,179.7753,88.7921,271.3228,0,U,60317,999,7186,.61531953E-4,.1463E-4,0
STARLINK-32190,2024-133T,2025-10-30T22:05:28.870656,15.30189315,.00011907,53.1595,179.7108,83.0028,277.1108,0,U,60318,999,7177,.43928201E-4,.942E-5,0
STARLINK-32182,2024-133U,2025-10-30T22:20:41.538912,15.30185492,.00013127,53.1594,179.7814,73.1751,286.9394,0,U,60319,999,7177,-.35883406E-4,-.1421E-4,0
STARLINK-32199,2024-133V,2025-10-30T22:10:03.469728,15.30181493,.00012715,53.1596,179.7328,75.5262,284.5880,0,U,60320,999,7177,-.5777857E-4,-.2069E-4,0
STARLINK-32198,2024-133W,2025-10-30T22:23:42.749088,15.30203143,.00013469,53.1597,179.7926,49.7814,310.3305,0,U,60321,999,7186,.10104204E-3,.2635E-4,0
STARLINK-31745,2024-136A,2025-10-31T06:12:58.037184,15.30199558,.0001218,53.1603,317.1820,87.5597,272.5544,0,U,60329,999,7105,.37854068E-4,.762E-5,0
STARLINK-32153,2024-136B,2025-10-31T06:11:27.064032,15.30202712,.00013479,53.1605,317.1749,83.9049,276.2106,0,U,60330,999,6984,.1254527E-5,-.322E-5,0
STARLINK-32203,2024-136C,2025-10-31T06:53:57.819264,15.30194330,.00014329,53.1602,306.7090,86.5910,273.5255,0,U,60331,999,6999,.38437713E-4,.779E-5,0
STARLINK-32171,2024-136D,2025-10-31T06:34:05.948544,15.30187927,.00015064,53.1615,316.5672,83.8529,276.2644,0,U,60332,999,6985,-.3495117E-5,-.463E-5,0
STARLINK-32133,2024-136E,2025-10-31T06:02:19.751136,15.30196992,.00017504,53.1605,317.1322,107.9020,252.2171,0,U,60333,999,6984,.53668172E-4,.123E-4,0
STARLINK-32132,2024-136F,2025-10-31T07:27:16.322112,15.30191548,.00014089,53.1595,316.7929,79.7447,280.3712,0,U,60334,999,6985,.12459416E-4,.1E-6,0
STARLINK-32168,2024-136G,2025-10-31T07:22:42.209472,15.30201313,.00014819,53.1601,316.7713,102.6989,257.4177,0,U,60335,999,6985,-.10192482E-3,-.3377E-4,0
STARLINK-32079,2024-136H,2025-10-31T07:18:09.228672,15.30191336,.00014911,53.1608,316.7502,82.4061,277.7109,0,U,60336,999,6985,.30638641E-4,.548E-5,0
STARLINK-32078,2024-136K,2025-10-31T07:12:04.854816,15.30176662,.00018588,53.1638,316.7242,94.3321,265.7892,0,U,60338,999,6985,.13817612E-3,.3732E-4,0
STARLINK-32175,2024-136L,2025-10-31T07:09:02.336544,15.30186330,.00014616,53.1619,316.7097,93.9196,266.1971,0,U,60339,999,6985,.4935038E-5,-.213E-5,0
STARLINK-32176,2024-136M,2025-10-31T07:04:28.716384,15.30196091,.00017454,53.1634,316.6887,99.3738,260.7460,0,U,60340,999,7102,-.31006341E-4,-.1278E-4,0
