STARLINK-11128 [DTC]    
1 60302U 24133B   25303.75156391  .00009751  00000+0  85386-4 0  9999
2 60302  53.1605  66.9376 0000595 124.4410 235.6664 15.69669395 73321
STARLINK-11227 [DTC]    
1 60303U 24133C   25303.74665209  .00003273  00000+0  32031-4 0  9994
2 60303  53.1575  66.9032 0003035  80.1935 279.9426 15.69590402 73407
STARLINK-11224 [DTC]    
1 60304U 24133D   25303.61438974  .00014002  00000+0  12030-3 0  9996
2 60304  53.1580  67.4983 0001781  98.8280 261.2940 15.69697346 73387
STARLINK-11115 [DTC]    
1 60305U 24133E   25302.65445652  .00001326  00000+0  15799-4 0  9992
2 60305  53.1582  72.1729 0001320  92.1017 268.0152 15.69720640 73154
STARLINK-11109 [DTC]    
1 60306U 24133F   25302.84056895 -.00007151  00000+0 -54268-4 0  9999
2 60306  53.1561  71.1986 0000858  88.9356 271.1760 15.69690505 73189
STARLINK-11223 [DTC]    
1 60307U 24133G   25303.72213051 -.00006622  00000+0 -49884-4 0  9997
2 60307  53.1566  66.7387 0001676  57.6321 302.4859 15.69686671 73326
STARLINK-11192 [DTC]    
1 60308U 24133H   25303.72703056  .00000514  00000+0  91027-5 0  9996
2 60308  53.1569  66.7720 0001211  80.1086 280.0068 15.69711474 73328
STARLINK-11213 [DTC]    
1 60309U 24133J   25303.52621012 -.00000445  00000+0  11746-5 0  9990
2 60309  53.1610  67.6486 0000584  58.6213 301.4862 15.69707527 73299
STARLINK-11200 [DTC]    
1 60310U 24133K   25303.77598404  .00007752  00000+0  68837-4 0  9996
2 60310  53.1577  66.3588 0001410  75.7813 284.3361 15.69692803 73335
STARLINK-11206 [DTC]    
1 60312U 24133M   25303.63893305  .00009257  00000+0  81128-4 0  9991
2 60312  53.1572  67.6538 0001265  75.4004 284.7154 15.69727087 73302
STARLINK-11205 [DTC]    
1 60313U 24133N   25303.06100365  .00004201  00000+0  39506-4 0  9993
2 60313  53.1579  70.4465 0000290 148.8516 211.2519 15.69709054 73215
STARLINK-32191          
1 60314U 24133P   25303.91731698 -.00001257  00000+0 -30319-4 0  9990
2 60314  53.1603 179.6922 0001293  92.1474 267.9675 15.30184515 71779
STARLINK-32194          
1 60315U 24133Q   25303.93208086  .00001022  00000+0  46650-4 0  9996
2 60315  53.1602 179.7868 0001339  81.5706 278.5447 15.30195450 71775
STARLINK-32192          
1 60316U 24133R   25303.96047388 -.00002408  00000+0 -69249-4 0  9996
2 60316  53.1601 179.2573 0001228  94.0165 266.0976 15.30183093 71878
STARLINK-32189          
1 60317U 24133S   25303.92998252  .00001463  00000+0  61532-4 0  9993
2 60317  53.1594 179.7753 0001289  88.7921 271.3228 15.30190040 71860
STARLINK-32190          
1 60318U 24133T   25303.92047304  .00000942  00000+0  43928-4 0  9997
2 60318  53.1595 179.7108 0001190  83.0028 277.1108 15.30189315 71777
STARLINK-32182          
1 60319U 24133U   25303.93103633 -.00001421  00000+0 -35883-4 0  9993
2 60319  53.1594 179.7814 0001312  73.1751 286.9394 15.30185492 71777
STARLINK-32199          
1 60320U 24133V   25303.92365127 -.00002069  00000+0 -57779-4 0  9999
2 60320  53.1596 179.7328 0001271  75.5262 284.5880 15.30181493 71779
STARLINK-32198          
1 60321U 24133W   25303.93313367  .00002635  00000+0  10104-3 0  9997
2 60321  53.1597 179.7926 0001346  49.7814 310.3305 15.30203143 71861
STARLINK-31745          
1 60329U 24136A   25304.25900506  .00000762  00000+0  37854-4 0  9992
2 60329  53.1603 317.1820 0001218  87.5597 272.5544 15.30199558 71053
STARLINK-32153          
1 60330U 24136B   25304.25795213 -.00000322  00000+0  12545-5 0  9995
2 60330  53.1605 317.1749 0001347  83.9049 276.2106 15.30202712 69848
STARLINK-32203          
1 60331U 24136C   25304.28747476  .00000779  00000+0  38438-4 0  9990
2 60331  53.1602 306.7090 0001432  86.5910 273.5255 15.30194330 69997
STARLINK-32171          
1 60332U 24136D   25304.27367996 -.00000463  00000+0 -34951-5 0  9994
2 60332  53.1615 316.5672 0001506  83.8529 276.2644 15.30187927 69856
STARLINK-32133          
1 60333U 24136E   25304.25161749  .00001230  00000+0  53668-4 0  9997
2 60333  53.1605 317.1322 0001750 107.9020 252.2171 15.30196992 69840
STARLINK-32132          
1 60334U 24136F   25304.31060558  .00000010  00000+0  12459-4 0  9999
2 60334  53.1595 316.7929 0001408  79.7447 280.3712 15.30191548 69852
STARLINK-32168          
1 60335U 24136G   25304.30743298 -.00003377  00000+0 -10192-3 0  9990
2 60335  53.1601 316.7713 0001481 102.6989 257.4177 15.30201313 69852
STARLINK-32079          
1 60336U 24136H   25304.30427348  .00000548  00000+0  30639-4 0  9990
2 60336  53.1608 316.7502 0001491  82.4061 277.7109 15.30191336 69856
STARLINK-32078          
1 60338U 24136K   25304.30005619  .00003732  00000+0  13818-3 0  9992
2 60338  53.1638 316.7242 0001858  94.3321 265.7892 15.30176662 69851
STARLINK-32175          
1 60339U 24136L   25304.29794371 -.00000213  00000+0  49350-5 0  9995
2 60339  53.1619 316.7097 0001461  93.9196 266.1971 15.30186330 69850
STARLINK-32176          
1 60340U 24136M   25304.29477681 -.00001278  00000+0 -31006-4 0  9990
2 60340  53.1634 316.6887 0001745  99.3738 260.7460 15.30196091 71022
